[{"norad_id":"61952","company":"STARLINK","tle_line2":"2 61952  53.1618 277.2050 0001579 146.6939 213.4161 15.30217308 58586","launch_date":"2024-11-14","type":"LEO","tle_line1":"1 61952U 24209P   25327.12144785  .00032437  00000+0  11019-2 0  9993","satellite_name":"STARLINK-32572"},{"norad_id":"61953","company":"STARLINK","tle_line2":"2 61953  53.1594 277.7414 0001206  95.5972 264.5166 15.30202476 58576","launch_date":"2024-11-14","type":"LEO","tle_line1":"1 61953U 24209Q   25327.09412449  .00019113  00000+0  65573-3 0  9996","satellite_name":"STARLINK-32585"},{"norad_id":"61954","company":"STARLINK","tle_line2":"2 61954  53.1597 277.8062 0001373 108.7513 251.3637 15.30211484 58591","launch_date":"2024-11-14","type":"LEO","tle_line1":"1 61954U 24209R   25327.10467666  .00030839  00000+0  10487-2 0  9991","satellite_name":"STARLINK-32574"},{"norad_id":"61955","company":"STARLINK","tle_line2":"2 61955  53.1597 277.6996 0001195 100.2436 259.8700 15.30206837 58599","launch_date":"2024-11-14","type":"LEO","tle_line1":"1 61955U 24209S   25327.08779219  .00023355  00000+0  79803-3 0  9992","satellite_name":"STARLINK-32583"},{"norad_id":"61956","company":"STARLINK","tle_line2":"2 61956  53.1617 277.2308 0001152  80.0816 280.0315 15.30231618 58588","launch_date":"2024-11-14","type":"LEO","tle_line1":"1 61956U 24209T   25327.12671580  .00028861  00000+0  98183-3 0  9999","satellite_name":"STARLINK-32273"},{"norad_id":"61957","company":"STARLINK","tle_line2":"2 61957  53.1594 277.6611 0001049  96.2050 263.9070 15.30206768 58595","launch_date":"2024-11-14","type":"LEO","tle_line1":"1 61957U 24209U   25327.08145977  .00020446  00000+0  70040-3 0  9994","satellite_name":"STARLINK-32359"},{"norad_id":"61958","company":"STARLINK","tle_line2":"2 61958  53.1608 277.2205 0001726  54.4075 305.7086 15.30197447 58609","launch_date":"2024-11-14","type":"LEO","tle_line1":"1 61958U 24209V   25327.12356492  .00016038  00000+0  55250-3 0  9994","satellite_name":"STARLINK-32566"},{"norad_id":"61959","company":"STARLINK","tle_line2":"2 61959  43.0040  65.8042 0001261 271.9823  88.0885 15.27614161 58509","launch_date":"2024-11-14","type":"LEO","tle_line1":"1 61959U 24210A   25326.31873257  .00040301  00000+0  14645-2 0  9992","satellite_name":"STARLINK-32499"},{"norad_id":"61960","company":"STARLINK","tle_line2":"2 61960  43.0035  65.8574 0003161 278.4601  81.5892 15.27601752 58364","launch_date":"2024-11-14","type":"LEO","tle_line1":"1 61960U 24210B   25326.32644468  .00048092  00000+0  17445-2 0  9991","satellite_name":"STARLINK-32372"},{"norad_id":"61961","company":"STARLINK","tle_line2":"2 61961  43.0010  58.2725 0001443 210.9849 149.0918 15.27634306 58593","launch_date":"2024-11-14","type":"LEO","tle_line1":"1 61961U 24210C   25326.46718383  .00046105  00000+0  16717-2 0  9999","satellite_name":"STARLINK-32452"},{"norad_id":"61962","company":"STARLINK","tle_line2":"2 61962  43.0030  52.2681 0001044 247.1520 112.9221 15.27594314 58642","launch_date":"2024-11-14","type":"LEO","tle_line1":"1 61962U 24210D   25326.24629227  .00056088  00000+0  20314-2 0  9993","satellite_name":"STARLINK-32458"},{"norad_id":"61963","company":"STARLINK","tle_line2":"2 61963  43.0009  71.6121 0003207 283.9027  76.1468 15.27602895 58341","launch_date":"2024-11-14","type":"LEO","tle_line1":"1 61963U 24210E   25325.37519853  .00026845  00000+0  98073-3 0  9996","satellite_name":"STARLINK-32487"},{"norad_id":"61964","company":"STARLINK","tle_line2":"2 61964  43.0031  51.8089 0001259 265.3485  94.7223 15.27599589 58651","launch_date":"2024-11-14","type":"LEO","tle_line1":"1 61964U 24210F   25326.30011219  .00030138  00000+0  10996-2 0  9991","satellite_name":"STARLINK-32513"},{"norad_id":"61965","company":"STARLINK","tle_line2":"2 61965  42.9942  59.4084 0000497 339.4157  20.6675 15.27573540 58560","launch_date":"2024-11-14","type":"LEO","tle_line1":"1 61965U 24210G   25326.27487982  .00042884  00000+0  15591-2 0  9999","satellite_name":"STARLINK-32514"},{"norad_id":"61966","company":"STARLINK","tle_line2":"2 61966  43.0021  51.7019 0001860 162.6502 197.4413 15.27595522 58656","launch_date":"2024-11-14","type":"LEO","tle_line1":"1 61966U 24210H   25326.28597493  .00027935  00000+0  10203-2 0  9995","satellite_name":"STARLINK-32498"},{"norad_id":"61967","company":"STARLINK","tle_line2":"2 61967  43.0005  59.4086 0005098 291.8907  68.1403 15.27615453 58434","launch_date":"2024-11-14","type":"LEO","tle_line1":"1 61967U 24210J   25326.30054423  .00046235  00000+0  16769-2 0  9997","satellite_name":"STARLINK-32518"}]