[{"OBJECT_NAME":"STARLINK-32572","OBJECT_ID":"2024-209P","EPOCH":"2025-11-23T02:54:53.094240","MEAN_MOTION":15.30217308,"ECCENTRICITY":0.0001579,"INCLINATION":53.1618,"RA_OF_ASC_NODE":277.205,"ARG_OF_PERICENTER":146.6939,"MEAN_ANOMALY":213.4161,"EPHEMERIS_TYPE":0,"CLASSIFICATION_TYPE":"U","NORAD_CAT_ID":61952,"ELEMENT_SET_NO":999,"REV_AT_EPOCH":5858,"BSTAR":0.0011019,"MEAN_MOTION_DOT":0.00032437,"MEAN_MOTION_DDOT":0},{"OBJECT_NAME":"STARLINK-32585","OBJECT_ID":"2024-209Q","EPOCH":"2025-11-23T02:15:32.355936","MEAN_MOTION":15.30202476,"ECCENTRICITY":0.0001206,"INCLINATION":53.1594,"RA_OF_ASC_NODE":277.7414,"ARG_OF_PERICENTER":95.5972,"MEAN_ANOMALY":264.5166,"EPHEMERIS_TYPE":0,"CLASSIFICATION_TYPE":"U","NORAD_CAT_ID":61953,"ELEMENT_SET_NO":999,"REV_AT_EPOCH":5857,"BSTAR":0.00065573,"MEAN_MOTION_DOT":0.00019113,"MEAN_MOTION_DDOT":0},{"OBJECT_NAME":"STARLINK-32574","OBJECT_ID":"2024-209R","EPOCH":"2025-11-23T02:30:44.063424","MEAN_MOTION":15.30211484,"ECCENTRICITY":0.0001373,"INCLINATION":53.1597,"RA_OF_ASC_NODE":277.8062,"ARG_OF_PERICENTER":108.7513,"MEAN_ANOMALY":251.3637,"EPHEMERIS_TYPE":0,"CLASSIFICATION_TYPE":"U","NORAD_CAT_ID":61954,"ELEMENT_SET_NO":999,"REV_AT_EPOCH":5859,"BSTAR":0.0010487,"MEAN_MOTION_DOT":0.00030839,"MEAN_MOTION_DDOT":0},{"OBJECT_NAME":"STARLINK-32583","OBJECT_ID":"2024-209S","EPOCH":"2025-11-23T02:06:25.245216","MEAN_MOTION":15.30206837,"ECCENTRICITY":0.0001195,"INCLINATION":53.1597,"RA_OF_ASC_NODE":277.6996,"ARG_OF_PERICENTER":100.2436,"MEAN_ANOMALY":259.87,"EPHEMERIS_TYPE":0,"CLASSIFICATION_TYPE":"U","NORAD_CAT_ID":61955,"ELEMENT_SET_NO":999,"REV_AT_EPOCH":5859,"BSTAR":0.00079803,"MEAN_MOTION_DOT":0.00023355,"MEAN_MOTION_DDOT":0},{"OBJECT_NAME":"STARLINK-32273","OBJECT_ID":"2024-209T","EPOCH":"2025-11-23T03:02:28.245120","MEAN_MOTION":15.30231618,"ECCENTRICITY":0.0001152,"INCLINATION":53.1617,"RA_OF_ASC_NODE":277.2308,"ARG_OF_PERICENTER":80.0816,"MEAN_ANOMALY":280.0315,"EPHEMERIS_TYPE":0,"CLASSIFICATION_TYPE":"U","NORAD_CAT_ID":61956,"ELEMENT_SET_NO":999,"REV_AT_EPOCH":5858,"BSTAR":0.00098183,"MEAN_MOTION_DOT":0.00028861,"MEAN_MOTION_DDOT":0},{"OBJECT_NAME":"STARLINK-32359","OBJECT_ID":"2024-209U","EPOCH":"2025-11-23T01:57:18.124128","MEAN_MOTION":15.30206768,"ECCENTRICITY":0.0001049,"INCLINATION":53.1594,"RA_OF_ASC_NODE":277.6611,"ARG_OF_PERICENTER":96.205,"MEAN_ANOMALY":263.907,"EPHEMERIS_TYPE":0,"CLASSIFICATION_TYPE":"U","NORAD_CAT_ID":61957,"ELEMENT_SET_NO":999,"REV_AT_EPOCH":5859,"BSTAR":0.0007004,"MEAN_MOTION_DOT":0.00020446,"MEAN_MOTION_DDOT":0},{"OBJECT_NAME":"STARLINK-32566","OBJECT_ID":"2024-209V","EPOCH":"2025-11-23T02:57:56.009088","MEAN_MOTION":15.30197447,"ECCENTRICITY":0.0001726,"INCLINATION":53.1608,"RA_OF_ASC_NODE":277.2205,"ARG_OF_PERICENTER":54.4075,"MEAN_ANOMALY":305.7086,"EPHEMERIS_TYPE":0,"CLASSIFICATION_TYPE":"U","NORAD_CAT_ID":61958,"ELEMENT_SET_NO":999,"REV_AT_EPOCH":5860,"BSTAR":0.0005525,"MEAN_MOTION_DOT":0.00016038,"MEAN_MOTION_DDOT":0},{"OBJECT_NAME":"STARLINK-32499","OBJECT_ID":"2024-210A","EPOCH":"2025-11-22T07:38:58.494048","MEAN_MOTION":15.27614161,"ECCENTRICITY":0.00012615,"INCLINATION":43.004,"RA_OF_ASC_NODE":65.8042,"ARG_OF_PERICENTER":271.9823,"MEAN_ANOMALY":88.0885,"EPHEMERIS_TYPE":0,"CLASSIFICATION_TYPE":"U","NORAD_CAT_ID":61959,"ELEMENT_SET_NO":999,"REV_AT_EPOCH":5850,"BSTAR":0.0014645386,"MEAN_MOTION_DOT":0.00040301,"MEAN_MOTION_DDOT":0},{"OBJECT_NAME":"STARLINK-32372","OBJECT_ID":"2024-210B","EPOCH":"2025-11-22T07:50:04.820352","MEAN_MOTION":15.27601752,"ECCENTRICITY":0.00031614,"INCLINATION":43.0035,"RA_OF_ASC_NODE":65.8574,"ARG_OF_PERICENTER":278.4601,"MEAN_ANOMALY":81.5892,"EPHEMERIS_TYPE":0,"CLASSIFICATION_TYPE":"U","NORAD_CAT_ID":61960,"ELEMENT_SET_NO":999,"REV_AT_EPOCH":5836,"BSTAR":0.0017445006,"MEAN_MOTION_DOT":0.00048092,"MEAN_MOTION_DDOT":0},{"OBJECT_NAME":"STARLINK-32452","OBJECT_ID":"2024-210C","EPOCH":"2025-11-22T11:12:44.682912","MEAN_MOTION":15.27634306,"ECCENTRICITY":0.0001443,"INCLINATION":43.001,"RA_OF_ASC_NODE":58.2725,"ARG_OF_PERICENTER":210.9849,"MEAN_ANOMALY":149.0918,"EPHEMERIS_TYPE":0,"CLASSIFICATION_TYPE":"U","NORAD_CAT_ID":61961,"ELEMENT_SET_NO":999,"REV_AT_EPOCH":5859,"BSTAR":0.0016717,"MEAN_MOTION_DOT":0.00046105,"MEAN_MOTION_DDOT":0},{"OBJECT_NAME":"STARLINK-32458","OBJECT_ID":"2024-210D","EPOCH":"2025-11-22T05:54:39.652128","MEAN_MOTION":15.27594314,"ECCENTRICITY":0.00010448,"INCLINATION":43.003,"RA_OF_ASC_NODE":52.2681,"ARG_OF_PERICENTER":247.152,"MEAN_ANOMALY":112.9221,"EPHEMERIS_TYPE":0,"CLASSIFICATION_TYPE":"U","NORAD_CAT_ID":61962,"ELEMENT_SET_NO":999,"REV_AT_EPOCH":5864,"BSTAR":0.0020314008,"MEAN_MOTION_DOT":0.00056088,"MEAN_MOTION_DDOT":0},{"OBJECT_NAME":"STARLINK-32487","OBJECT_ID":"2024-210E","EPOCH":"2025-11-21T09:00:17.152992","MEAN_MOTION":15.27602895,"ECCENTRICITY":0.00032075,"INCLINATION":43.0009,"RA_OF_ASC_NODE":71.6121,"ARG_OF_PERICENTER":283.9027,"MEAN_ANOMALY":76.1468,"EPHEMERIS_TYPE":0,"CLASSIFICATION_TYPE":"U","NORAD_CAT_ID":61963,"ELEMENT_SET_NO":999,"REV_AT_EPOCH":5834,"BSTAR":0.0009807304,"MEAN_MOTION_DOT":0.00026845,"MEAN_MOTION_DDOT":0},{"OBJECT_NAME":"STARLINK-32513","OBJECT_ID":"2024-210F","EPOCH":"2025-11-22T07:12:09.693216","MEAN_MOTION":15.27599589,"ECCENTRICITY":0.00012595,"INCLINATION":43.0031,"RA_OF_ASC_NODE":51.8089,"ARG_OF_PERICENTER":265.3485,"MEAN_ANOMALY":94.7223,"EPHEMERIS_TYPE":0,"CLASSIFICATION_TYPE":"U","NORAD_CAT_ID":61964,"ELEMENT_SET_NO":999,"REV_AT_EPOCH":5865,"BSTAR":0.0010995998,"MEAN_MOTION_DOT":0.00030138,"MEAN_MOTION_DDOT":0},{"OBJECT_NAME":"STARLINK-32514","OBJECT_ID":"2024-210G","EPOCH":"2025-11-22T06:35:49.616448","MEAN_MOTION":15.2757354,"ECCENTRICITY":4.976e-5,"INCLINATION":42.9942,"RA_OF_ASC_NODE":59.4084,"ARG_OF_PERICENTER":339.4157,"MEAN_ANOMALY":20.6675,"EPHEMERIS_TYPE":0,"CLASSIFICATION_TYPE":"U","NORAD_CAT_ID":61965,"ELEMENT_SET_NO":999,"REV_AT_EPOCH":5856,"BSTAR":0.0015591498,"MEAN_MOTION_DOT":0.00042884,"MEAN_MOTION_DDOT":0},{"OBJECT_NAME":"STARLINK-32498","OBJECT_ID":"2024-210H","EPOCH":"2025-11-22T06:51:48.233952","MEAN_MOTION":15.27595522,"ECCENTRICITY":0.000186,"INCLINATION":43.0021,"RA_OF_ASC_NODE":51.7019,"ARG_OF_PERICENTER":162.6502,"MEAN_ANOMALY":197.4413,"EPHEMERIS_TYPE":0,"CLASSIFICATION_TYPE":"U","NORAD_CAT_ID":61966,"ELEMENT_SET_NO":999,"REV_AT_EPOCH":5865,"BSTAR":0.0010203258,"MEAN_MOTION_DOT":0.00027935,"MEAN_MOTION_DDOT":0},{"OBJECT_NAME":"STARLINK-32518","OBJECT_ID":"2024-210J","EPOCH":"2025-11-22T07:12:47.021472","MEAN_MOTION":15.27615453,"ECCENTRICITY":0.00050982,"INCLINATION":43.0005,"RA_OF_ASC_NODE":59.4086,"ARG_OF_PERICENTER":291.8907,"MEAN_ANOMALY":68.1403,"EPHEMERIS_TYPE":0,"CLASSIFICATION_TYPE":"U","NORAD_CAT_ID":61967,"ELEMENT_SET_NO":999,"REV_AT_EPOCH":5843,"BSTAR":0.001676884,"MEAN_MOTION_DOT":0.00046235,"MEAN_MOTION_DDOT":0}]
